CSS (TIANHE)            
1 48274U 21035A   24011.82610555  .00043865  00000+0  47674-3 0  9992
2 48274  41.4702 324.4426 0004640  89.0705 271.0666 15.62659629154462
